{"fetched_at":"2026-07-17T06:37:56.553Z","source":"https://celestrak.org/NORAD/elements/gp.php?GROUP=spire&FORMAT=JSON","constellation":"spire","records":[{"OBJECT_NAME":"LEMUR-2-LEIA-PHILIP","OBJECT_ID":"2025-052AN","EPOCH":"2026-07-16T16:09:58.996800","CLASSIFICATION_TYPE":"U","MEAN_MOTION":14.97392156,"ECCENTRICITY":0.0005092,"INCLINATION":97.6801,"RA_OF_ASC_NODE":89.1244,"ARG_OF_PERICENTER":116.3264,"MEAN_ANOMALY":243.8482,"EPHEMERIS_TYPE":0,"NORAD_CAT_ID":63246,"ELEMENT_SET_NO":999,"REV_AT_EPOCH":7308,"BSTAR":0.0000080762,"MEAN_MOTION_DOT":3.6e-7,"MEAN_MOTION_DDOT":0},{"OBJECT_NAME":"LEMUR-2-LIA-MARTIN","OBJECT_ID":"2025-052AQ","EPOCH":"2026-07-16T16:01:13.879200","CLASSIFICATION_TYPE":"U","MEAN_MOTION":14.98035935,"ECCENTRICITY":0.0005223,"INCLINATION":97.6862,"RA_OF_ASC_NODE":89.6398,"ARG_OF_PERICENTER":86.857,"MEAN_ANOMALY":273.325,"EPHEMERIS_TYPE":0,"NORAD_CAT_ID":63248,"ELEMENT_SET_NO":999,"REV_AT_EPOCH":7309,"BSTAR":0.00014764,"MEAN_MOTION_DOT":0.00001687,"MEAN_MOTION_DDOT":0},{"OBJECT_NAME":"LEMUR-2-DELOITTE-1","OBJECT_ID":"2025-052BB","EPOCH":"2026-07-16T20:22:02.534880","CLASSIFICATION_TYPE":"U","MEAN_MOTION":14.9779039,"ECCENTRICITY":0.000252,"INCLINATION":97.6884,"RA_OF_ASC_NODE":90.1479,"ARG_OF_PERICENTER":62.5836,"MEAN_ANOMALY":297.5642,"EPHEMERIS_TYPE":0,"NORAD_CAT_ID":63259,"ELEMENT_SET_NO":999,"REV_AT_EPOCH":7313,"BSTAR":0.00020904,"MEAN_MOTION_DOT":0.00002397,"MEAN_MOTION_DDOT":0},{"OBJECT_NAME":"LEMUR-2-EMERSONROSE","OBJECT_ID":"2025-052BD","EPOCH":"2026-07-16T15:51:45.226368","CLASSIFICATION_TYPE":"U","MEAN_MOTION":14.99298793,"ECCENTRICITY":0.0002631,"INCLINATION":97.6883,"RA_OF_ASC_NODE":90.5797,"ARG_OF_PERICENTER":58.2436,"MEAN_ANOMALY":301.9043,"EPHEMERIS_TYPE":0,"NORAD_CAT_ID":63261,"ELEMENT_SET_NO":999,"REV_AT_EPOCH":7315,"BSTAR":0.00021243,"MEAN_MOTION_DOT":0.00002535,"MEAN_MOTION_DDOT":0},{"OBJECT_NAME":"LEMUR-2-MARACHE-FRAN","OBJECT_ID":"2025-052BE","EPOCH":"2026-07-16T16:23:01.024800","CLASSIFICATION_TYPE":"U","MEAN_MOTION":15.00321089,"ECCENTRICITY":0.0005361,"INCLINATION":97.6829,"RA_OF_ASC_NODE":90.9697,"ARG_OF_PERICENTER":246.8465,"MEAN_ANOMALY":113.2194,"EPHEMERIS_TYPE":0,"NORAD_CAT_ID":63262,"ELEMENT_SET_NO":999,"REV_AT_EPOCH":7318,"BSTAR":0.00014456,"MEAN_MOTION_DOT":0.00001753,"MEAN_MOTION_DDOT":0},{"OBJECT_NAME":"LEMUR-2-THEFALCONER","OBJECT_ID":"2025-052BG","EPOCH":"2026-07-16T16:17:36.060576","CLASSIFICATION_TYPE":"U","MEAN_MOTION":14.97566592,"ECCENTRICITY":0.0000352,"INCLINATION":97.6825,"RA_OF_ASC_NODE":89.57,"ARG_OF_PERICENTER":260.7632,"MEAN_ANOMALY":99.355,"EPHEMERIS_TYPE":0,"NORAD_CAT_ID":63264,"ELEMENT_SET_NO":999,"REV_AT_EPOCH":7310,"BSTAR":0.000094694,"MEAN_MOTION_DOT":0.00001048,"MEAN_MOTION_DDOT":0},{"OBJECT_NAME":"LEMUR-2-UNTITLED-SC","OBJECT_ID":"2025-061A","EPOCH":"2026-07-16T20:07:35.789088","CLASSIFICATION_TYPE":"U","MEAN_MOTION":15.13651904,"ECCENTRICITY":0.001936,"INCLINATION":97.5657,"RA_OF_ASC_NODE":172.9906,"ARG_OF_PERICENTER":157.6117,"MEAN_ANOMALY":202.5963,"EPHEMERIS_TYPE":0,"NORAD_CAT_ID":63351,"ELEMENT_SET_NO":999,"REV_AT_EPOCH":7207,"BSTAR":0.00009929,"MEAN_MOTION_DOT":0.00001725,"MEAN_MOTION_DDOT":0},{"OBJECT_NAME":"LEMUR-2-ESPERANZA","OBJECT_ID":"2025-061B","EPOCH":"2026-07-16T19:31:54.761664","CLASSIFICATION_TYPE":"U","MEAN_MOTION":15.13758544,"ECCENTRICITY":0.0018969,"INCLINATION":97.5665,"RA_OF_ASC_NODE":173.0666,"ARG_OF_PERICENTER":156.9081,"MEAN_ANOMALY":203.3007,"EPHEMERIS_TYPE":0,"NORAD_CAT_ID":63352,"ELEMENT_SET_NO":999,"REV_AT_EPOCH":7207,"BSTAR":0.00010219,"MEAN_MOTION_DOT":0.00001783,"MEAN_MOTION_DDOT":0},{"OBJECT_NAME":"LEMUR-2-KREMPEL-BRO2","OBJECT_ID":"2025-061C","EPOCH":"2026-07-16T19:58:34.550976","CLASSIFICATION_TYPE":"U","MEAN_MOTION":15.14184756,"ECCENTRICITY":0.0020159,"INCLINATION":97.5708,"RA_OF_ASC_NODE":173.656,"ARG_OF_PERICENTER":149.8101,"MEAN_ANOMALY":210.4297,"EPHEMERIS_TYPE":0,"NORAD_CAT_ID":63353,"ELEMENT_SET_NO":999,"REV_AT_EPOCH":7209,"BSTAR":0.00010306,"MEAN_MOTION_DOT":0.00001822,"MEAN_MOTION_DDOT":0},{"OBJECT_NAME":"LEMUR-2-THERMORAPTOR","OBJECT_ID":"2025-061D","EPOCH":"2026-07-16T19:30:27.069120","CLASSIFICATION_TYPE":"U","MEAN_MOTION":15.14268285,"ECCENTRICITY":0.0019895,"INCLINATION":97.5714,"RA_OF_ASC_NODE":173.7181,"ARG_OF_PERICENTER":148.7875,"MEAN_ANOMALY":211.4543,"EPHEMERIS_TYPE":0,"NORAD_CAT_ID":63354,"ELEMENT_SET_NO":999,"REV_AT_EPOCH":7209,"BSTAR":0.0001216,"MEAN_MOTION_DOT":0.00002167,"MEAN_MOTION_DDOT":0},{"OBJECT_NAME":"LEMUR-2-NEUROSPICY","OBJECT_ID":"2025-061E","EPOCH":"2026-07-16T20:21:30.845952","CLASSIFICATION_TYPE":"U","MEAN_MOTION":15.14386903,"ECCENTRICITY":0.0017662,"INCLINATION":97.5642,"RA_OF_ASC_NODE":173.3566,"ARG_OF_PERICENTER":151.4567,"MEAN_ANOMALY":208.7635,"EPHEMERIS_TYPE":0,"NORAD_CAT_ID":63355,"ELEMENT_SET_NO":999,"REV_AT_EPOCH":7210,"BSTAR":0.000090535,"MEAN_MOTION_DOT":0.000016,"MEAN_MOTION_DDOT":0},{"OBJECT_NAME":"LEMUR-2-TILLINFINITY","OBJECT_ID":"2025-061F","EPOCH":"2026-07-16T19:20:43.572768","CLASSIFICATION_TYPE":"U","MEAN_MOTION":15.14971595,"ECCENTRICITY":0.0019212,"INCLINATION":97.5627,"RA_OF_ASC_NODE":173.6259,"ARG_OF_PERICENTER":140.6361,"MEAN_ANOMALY":219.6271,"EPHEMERIS_TYPE":0,"NORAD_CAT_ID":63356,"ELEMENT_SET_NO":999,"REV_AT_EPOCH":7212,"BSTAR":0.00012068,"MEAN_MOTION_DOT":0.00002193,"MEAN_MOTION_DDOT":0},{"OBJECT_NAME":"LEMUR-2-KREMPEL-BRO1","OBJECT_ID":"2025-061G","EPOCH":"2026-07-16T20:23:05.758080","CLASSIFICATION_TYPE":"U","MEAN_MOTION":15.14778201,"ECCENTRICITY":0.0019837,"INCLINATION":97.5628,"RA_OF_ASC_NODE":173.5767,"ARG_OF_PERICENTER":141.8485,"MEAN_ANOMALY":218.4155,"EPHEMERIS_TYPE":0,"NORAD_CAT_ID":63357,"ELEMENT_SET_NO":999,"REV_AT_EPOCH":7212,"BSTAR":0.000091841,"MEAN_MOTION_DOT":0.00001644,"MEAN_MOTION_DDOT":0},{"OBJECT_NAME":"LEMUR-2-LANGER2SPACE","OBJECT_ID":"2025-061H","EPOCH":"2026-07-16T19:34:41.943072","CLASSIFICATION_TYPE":"U","MEAN_MOTION":15.14471707,"ECCENTRICITY":0.0017567,"INCLINATION":97.5633,"RA_OF_ASC_NODE":173.3455,"ARG_OF_PERICENTER":149.9074,"MEAN_ANOMALY":210.3171,"EPHEMERIS_TYPE":0,"NORAD_CAT_ID":63358,"ELEMENT_SET_NO":999,"REV_AT_EPOCH":7210,"BSTAR":0.00012121,"MEAN_MOTION_DOT":0.0000217,"MEAN_MOTION_DDOT":0},{"OBJECT_NAME":"LEMUR-2-BALTO","OBJECT_ID":"2025-052BH","EPOCH":"2026-07-16T16:00:25.591104","CLASSIFICATION_TYPE":"U","MEAN_MOTION":15.00372103,"ECCENTRICITY":0.0005068,"INCLINATION":97.6925,"RA_OF_ASC_NODE":90.9447,"ARG_OF_PERICENTER":321.2397,"MEAN_ANOMALY":38.8462,"EPHEMERIS_TYPE":0,"NORAD_CAT_ID":63395,"ELEMENT_SET_NO":999,"REV_AT_EPOCH":7318,"BSTAR":0.0002063,"MEAN_MOTION_DOT":0.00002531,"MEAN_MOTION_DDOT":0},{"OBJECT_NAME":"LEMUR-2-KRISH","OBJECT_ID":"2025-135AK","EPOCH":"2026-07-16T18:21:51.179616","CLASSIFICATION_TYPE":"U","MEAN_MOTION":14.96454472,"ECCENTRICITY":0.0001205,"INCLINATION":97.7773,"RA_OF_ASC_NODE":312.4454,"ARG_OF_PERICENTER":98.2594,"MEAN_ANOMALY":261.8764,"EPHEMERIS_TYPE":0,"NORAD_CAT_ID":64561,"ELEMENT_SET_NO":999,"REV_AT_EPOCH":5834,"BSTAR":0.00016263,"MEAN_MOTION_DOT":0.00001787,"MEAN_MOTION_DDOT":0}]}
